[{"OBJECT_NAME":"ONEWEB-0626","OBJECT_ID":"2023-004AD","EPOCH":"2026-03-09T21:37:43.681728","MEAN_MOTION":13.17651985,"ECCENTRICITY":0.00022197,"INCLINATION":87.9145,"RA_OF_ASC_NODE":25.5901,"ARG_OF_PERICENTER":80.7437,"MEAN_ANOMALY":279.3945,"EPHEMERIS_TYPE":0,"CLASSIFICATION_TYPE":"U","NORAD_CAT_ID":55167,"ELEMENT_SET_NO":999,"REV_AT_EPOCH":15450,"BSTAR":-0.0028298824,"MEAN_MOTION_DOT":-1.086e-5,"MEAN_MOTION_DDOT":0},{"OBJECT_NAME":"FENGYUN 1C DEB","OBJECT_ID":"1999-025CPT","EPOCH":"2026-03-07T13:28:03.366048","MEAN_MOTION":13.57252969,"ECCENTRICITY":0.0259156,"INCLINATION":99.1549,"RA_OF_ASC_NODE":88.2947,"ARG_OF_PERICENTER":327.6522,"MEAN_ANOMALY":186.6788,"EPHEMERIS_TYPE":0,"CLASSIFICATION_TYPE":"U","NORAD_CAT_ID":31990,"ELEMENT_SET_NO":999,"REV_AT_EPOCH":63922,"BSTAR":0.00035253,"MEAN_MOTION_DOT":2.71e-6,"MEAN_MOTION_DDOT":0}]
